{"spkid": "20523818", "covariance": {"labels": ["e", "q", "tp", "node", "peri", "i"], "data": [["2.349837034174228E-13", "-2.8799023372568E-13", "-2.777271627114973E-11", "1.428203100835194E-12", "-1.525429550344974E-11", "7.200690913919911E-12"], ["-2.8799023372568E-13", "3.52958359552673E-13", "3.420701033032906E-11", "-1.75083450886306E-12", "1.879183518681958E-11", "-8.823288458889964E-12"], ["-2.777271627114973E-11", "3.420701033032906E-11", "1.37022459861221E-7", "-1.082328219340348E-9", "7.9353599538251E-8", "-1.936674678396127E-10"], ["1.428203100835194E-12", "-1.75083450886306E-12", "-1.082328219340348E-9", "2.444607752356627E-10", "-8.44580704559207E-10", "1.539500152663431E-10"], ["-1.525429550344974E-11", "1.879183518681958E-11", "7.9353599538251E-8", "-8.44580704559207E-10", "4.618230844241281E-8", "-1.976412127994573E-10"], ["7.200690913919911E-12", "-8.823288458889964E-12", "-1.936674678396127E-10", "1.539500152663431E-10", "-1.976412127994573E-10", "3.7895689868011E-10"]], "elements": [{"units": null, "value": ".1369441947374612", "title": "eccentricity", "name": "e", "sigma": 4.84751176808703e-07, "label": "e"}, {"label": "q", "units": "au", "value": "1.040837720536063", "title": "perihelion distance", "sigma": 5.94102987328521e-07, "name": "q"}, {"value": "2458646.690009691112", "title": "time of perihelion passage", "units": "TDB", "name": "tp", "sigma": 0.000370165449307767, "label": "tp"}, {"sigma": 1.56352414511469e-05, "name": "om", "title": "longitude of the ascending node", "value": "190.6042344593327", "units": "deg", "label": "node"}, {"name": "w", "sigma": 0.000214900694373966, "title": "argument of perihelion", "value": "10.95535444792703", "units": "deg", "label": "peri"}, {"name": "i", "sigma": 1.94668153194124e-05, "title": "inclination", "value": "13.86190183084382", "units": "deg", "label": "i"}], "epoch": "2458421.5"}, "elements": [{"label": "e", "units": null, "title": "eccentricity", "value": ".1369668890973317", "name": "e", "sigma": "4.8472E-7"}, {"label": "a", "name": "a", "sigma": "1.1088E-8", "title": "semi-major axis", "value": "1.206029577003256", "units": "au"}, {"units": "au", "title": "perihelion distance", "value": "1.040843457681749", "name": "q", "sigma": "5.9393E-7", "label": "q"}, {"label": "i", "sigma": "1.9467E-5", "name": "i", "units": "deg", "title": "inclination; angle with respect to x-y ecliptic plane", "value": "13.86178530502845"}, {"label": "node", "title": "longitude of the ascending node", "value": "190.5694872304053", "units": "deg", "sigma": "1.5639E-5", "name": "om"}, {"value": "11.0092310732037", "title": "argument of perihelion", "units": "deg", "name": "w", "sigma": ".00021488", "label": "peri"}, {"units": "deg", "title": "mean anomaly", "value": "100.5214319059478", "sigma": ".00028112", "name": "ma", "label": "M"}, {"label": "tp", "title": "time of perihelion passage", "value": "2461065.419851147302", "units": "TDB", "sigma": ".00037733", "name": "tp"}, {"title": "sidereal orbital period", "value": "483.7660254628128", "units": "d", "name": "per", "sigma": "6.6717E-6", "label": "period"}, {"sigma": "1.0263E-8", "name": "n", "units": "deg/d", "title": "mean motion", "value": ".7441613942516789", "label": "n"}, {"title": "aphelion distance", "value": "1.371215696324763", "units": "au", "sigma": "1.2607E-8", "name": "ad", "label": "Q"}], "epoch": "2461200.5"}